{"fetched_at":"2026-07-12T17:32:22.539Z","source":"https://celestrak.org/NORAD/elements/gp.php?GROUP=kuiper&FORMAT=JSON","constellation":"kuiper","records":[{"OBJECT_NAME":"KUIPER-00265","OBJECT_ID":"2025-301AC","EPOCH":"2026-07-12T11:11:33.434016","CLASSIFICATION_TYPE":"U","MEAN_MOTION":14.79934371,"ECCENTRICITY":0.0000569,"INCLINATION":51.9042,"RA_OF_ASC_NODE":253.8804,"ARG_OF_PERICENTER":144.8138,"MEAN_ANOMALY":215.2862,"EPHEMERIS_TYPE":0,"NORAD_CAT_ID":67159,"ELEMENT_SET_NO":999,"REV_AT_EPOCH":3196,"BSTAR":0.000050146,"MEAN_MOTION_DOT":0.00000161,"MEAN_MOTION_DDOT":0},{"OBJECT_NAME":"KUIPER-00159","OBJECT_ID":"2026-030A","EPOCH":"2026-07-12T12:00:02.000160","CLASSIFICATION_TYPE":"U","MEAN_MOTION":15.29675041,"ECCENTRICITY":0.0005768,"INCLINATION":51.8881,"RA_OF_ASC_NODE":335.982,"ARG_OF_PERICENTER":127.4407,"MEAN_ANOMALY":100.3525,"EPHEMERIS_TYPE":0,"NORAD_CAT_ID":67764,"ELEMENT_SET_NO":999,"REV_AT_EPOCH":502,"BSTAR":-0.00043256,"MEAN_MOTION_DOT":-0.00012962,"MEAN_MOTION_DDOT":0},{"OBJECT_NAME":"KUIPER-00160","OBJECT_ID":"2026-030B","EPOCH":"2026-07-12T10:44:21.104736","CLASSIFICATION_TYPE":"U","MEAN_MOTION":15.37454542,"ECCENTRICITY":0.0006361,"INCLINATION":51.8802,"RA_OF_ASC_NODE":336.0731,"ARG_OF_PERICENTER":129.7755,"MEAN_ANOMALY":230.3793,"EPHEMERIS_TYPE":0,"NORAD_CAT_ID":67765,"ELEMENT_SET_NO":999,"REV_AT_EPOCH":2428,"BSTAR":0.00051929,"MEAN_MOTION_DOT":0.00019038,"MEAN_MOTION_DDOT":0},{"OBJECT_NAME":"KUIPER-00177","OBJECT_ID":"2026-030C","EPOCH":"2026-07-12T13:09:34.746048","CLASSIFICATION_TYPE":"U","MEAN_MOTION":14.79936256,"ECCENTRICITY":0.0000605,"INCLINATION":51.901,"RA_OF_ASC_NODE":20.9992,"ARG_OF_PERICENTER":109.5576,"MEAN_ANOMALY":250.5451,"EPHEMERIS_TYPE":0,"NORAD_CAT_ID":67766,"ELEMENT_SET_NO":999,"REV_AT_EPOCH":2366,"BSTAR":0.00028025,"MEAN_MOTION_DOT":0.00001916,"MEAN_MOTION_DDOT":0},{"OBJECT_NAME":"KUIPER-00178","OBJECT_ID":"2026-030D","EPOCH":"2026-07-12T12:20:56.858208","CLASSIFICATION_TYPE":"U","MEAN_MOTION":14.79937099,"ECCENTRICITY":0.0000769,"INCLINATION":51.9013,"RA_OF_ASC_NODE":21.1305,"ARG_OF_PERICENTER":123.1831,"MEAN_ANOMALY":236.9205,"EPHEMERIS_TYPE":0,"NORAD_CAT_ID":67767,"ELEMENT_SET_NO":999,"REV_AT_EPOCH":2366,"BSTAR":0.00024638,"MEAN_MOTION_DOT":0.00001658,"MEAN_MOTION_DDOT":0},{"OBJECT_NAME":"KUIPER-00180","OBJECT_ID":"2026-030E","EPOCH":"2026-07-12T12:28:42.500640","CLASSIFICATION_TYPE":"U","MEAN_MOTION":14.79938131,"ECCENTRICITY":0.000066,"INCLINATION":51.8991,"RA_OF_ASC_NODE":16.1111,"ARG_OF_PERICENTER":107.9329,"MEAN_ANOMALY":252.1705,"EPHEMERIS_TYPE":0,"NORAD_CAT_ID":67768,"ELEMENT_SET_NO":999,"REV_AT_EPOCH":2373,"BSTAR":0.00027335,"MEAN_MOTION_DOT":0.00001864,"MEAN_MOTION_DDOT":0},{"OBJECT_NAME":"KUIPER-00197","OBJECT_ID":"2026-030F","EPOCH":"2026-07-12T09:45:17.202240","CLASSIFICATION_TYPE":"U","MEAN_MOTION":14.79938136,"ECCENTRICITY":0.0000639,"INCLINATION":51.8985,"RA_OF_ASC_NODE":356.6243,"ARG_OF_PERICENTER":167.9302,"MEAN_ANOMALY":192.1676,"EPHEMERIS_TYPE":0,"NORAD_CAT_ID":67769,"ELEMENT_SET_NO":999,"REV_AT_EPOCH":2399,"BSTAR":0.00026025,"MEAN_MOTION_DOT":0.00001764,"MEAN_MOTION_DDOT":0},{"OBJECT_NAME":"KUIPER-00198","OBJECT_ID":"2026-030G","EPOCH":"2026-07-12T11:51:43.125696","CLASSIFICATION_TYPE":"U","MEAN_MOTION":14.79919808,"ECCENTRICITY":0.000067,"INCLINATION":51.8991,"RA_OF_ASC_NODE":8.7184,"ARG_OF_PERICENTER":129.1187,"MEAN_ANOMALY":230.9835,"EPHEMERIS_TYPE":0,"NORAD_CAT_ID":67770,"ELEMENT_SET_NO":999,"REV_AT_EPOCH":2383,"BSTAR":0.00025221,"MEAN_MOTION_DOT":0.00001701,"MEAN_MOTION_DDOT":0},{"OBJECT_NAME":"KUIPER-00199","OBJECT_ID":"2026-030H","EPOCH":"2026-07-12T09:44:29.143968","CLASSIFICATION_TYPE":"U","MEAN_MOTION":15.36995757,"ECCENTRICITY":0.0010295,"INCLINATION":51.8822,"RA_OF_ASC_NODE":338.0084,"ARG_OF_PERICENTER":142.8265,"MEAN_ANOMALY":217.3436,"EPHEMERIS_TYPE":0,"NORAD_CAT_ID":67771,"ELEMENT_SET_NO":999,"REV_AT_EPOCH":2425,"BSTAR":0.00075164,"MEAN_MOTION_DOT":0.00027377,"MEAN_MOTION_DDOT":0},{"OBJECT_NAME":"KUIPER-00200","OBJECT_ID":"2026-030J","EPOCH":"2026-07-12T10:37:44.964192","CLASSIFICATION_TYPE":"U","MEAN_MOTION":14.79865135,"ECCENTRICITY":0.0001303,"INCLINATION":51.8992,"RA_OF_ASC_NODE":353.9901,"ARG_OF_PERICENTER":75.1946,"MEAN_ANOMALY":284.9161,"EPHEMERIS_TYPE":0,"NORAD_CAT_ID":67772,"ELEMENT_SET_NO":999,"REV_AT_EPOCH":2403,"BSTAR":0.00025526,"MEAN_MOTION_DOT":0.00001722,"MEAN_MOTION_DDOT":0},{"OBJECT_NAME":"KUIPER-00203","OBJECT_ID":"2026-030K","EPOCH":"2026-07-11T22:26:37.169088","CLASSIFICATION_TYPE":"U","MEAN_MOTION":14.7993025,"ECCENTRICITY":0.0000621,"INCLINATION":51.9061,"RA_OF_ASC_NODE":28.7538,"ARG_OF_PERICENTER":117.9602,"MEAN_ANOMALY":242.1423,"EPHEMERIS_TYPE":0,"NORAD_CAT_ID":67773,"ELEMENT_SET_NO":999,"REV_AT_EPOCH":2350,"BSTAR":0.000019325,"MEAN_MOTION_DOT":-7.4e-7,"MEAN_MOTION_DDOT":0},{"OBJECT_NAME":"KUIPER-00205","OBJECT_ID":"2026-030L","EPOCH":"2026-07-11T16:51:52.693344","CLASSIFICATION_TYPE":"U","MEAN_MOTION":14.79983108,"ECCENTRICITY":0.0000892,"INCLINATION":51.9013,"RA_OF_ASC_NODE":354.7143,"ARG_OF_PERICENTER":110.8868,"MEAN_ANOMALY":249.219,"EPHEMERIS_TYPE":0,"NORAD_CAT_ID":67774,"ELEMENT_SET_NO":999,"REV_AT_EPOCH":2396,"BSTAR":0.00026466302,"MEAN_MOTION_DOT":0.00001799,"MEAN_MOTION_DDOT":0},{"OBJECT_NAME":"KUIPER-00208","OBJECT_ID":"2026-030M","EPOCH":"2026-07-11T23:11:40.355520","CLASSIFICATION_TYPE":"U","MEAN_MOTION":14.76515125,"ECCENTRICITY":0.00082354,"INCLINATION":51.8992,"RA_OF_ASC_NODE":20.9505,"ARG_OF_PERICENTER":113.2886,"MEAN_ANOMALY":246.8943,"EPHEMERIS_TYPE":0,"NORAD_CAT_ID":67775,"ELEMENT_SET_NO":999,"REV_AT_EPOCH":2361,"BSTAR":0.00021091409,"MEAN_MOTION_DOT":0.00001267,"MEAN_MOTION_DDOT":0},{"OBJECT_NAME":"KUIPER-00209","OBJECT_ID":"2026-030N","EPOCH":"2026-07-12T13:17:20.530176","CLASSIFICATION_TYPE":"U","MEAN_MOTION":14.79935821,"ECCENTRICITY":0.000094,"INCLINATION":51.9022,"RA_OF_ASC_NODE":16.0528,"ARG_OF_PERICENTER":128.5426,"MEAN_ANOMALY":231.5621,"EPHEMERIS_TYPE":0,"NORAD_CAT_ID":67776,"ELEMENT_SET_NO":999,"REV_AT_EPOCH":2373,"BSTAR":0.000098803,"MEAN_MOTION_DOT":0.00000532,"MEAN_MOTION_DDOT":0},{"OBJECT_NAME":"KUIPER-00213","OBJECT_ID":"2026-030P","EPOCH":"2026-07-12T12:32:36.100320","CLASSIFICATION_TYPE":"U","MEAN_MOTION":14.79932471,"ECCENTRICITY":0.0001296,"INCLINATION":51.8923,"RA_OF_ASC_NODE":13.6685,"ARG_OF_PERICENTER":110.6641,"MEAN_ANOMALY":249.446,"EPHEMERIS_TYPE":0,"NORAD_CAT_ID":67777,"ELEMENT_SET_NO":999,"REV_AT_EPOCH":2376,"BSTAR":-0.0000093479,"MEAN_MOTION_DOT":-0.00000293,"MEAN_MOTION_DDOT":0},{"OBJECT_NAME":"KUIPER-00214","OBJECT_ID":"2026-030Q","EPOCH":"2026-07-12T11:47:53.126304","CLASSIFICATION_TYPE":"U","MEAN_MOTION":14.79935206,"ECCENTRICITY":0.0000616,"INCLINATION":51.9004,"RA_OF_ASC_NODE":11.3166,"ARG_OF_PERICENTER":134.6965,"MEAN_ANOMALY":225.4047,"EPHEMERIS_TYPE":0,"NORAD_CAT_ID":67778,"ELEMENT_SET_NO":999,"REV_AT_EPOCH":2379,"BSTAR":0.00024183,"MEAN_MOTION_DOT":0.00001623,"MEAN_MOTION_DDOT":0}]}
