KUIPER-00265            
1 67159U 25301AC  26193.46635919  .00000161  00000+0  50146-4 0  9990
2 67159  51.9042 253.8804 0000569 144.8138 215.2862 14.79934371 31963
KUIPER-00159            
1 67764U 26030A   26193.50002315 -.00012962  00000+0 -43256-3 0  9992
2 67764  51.8881 335.9820 0005768 127.4407 100.3525 15.29675041  5027
KUIPER-00160            
1 67765U 26030B   26193.44746649  .00019038  00000+0  51929-3 0  9996
2 67765  51.8802 336.0731 0006361 129.7755 230.3793 15.37454542 24285
KUIPER-00177            
1 67766U 26030C   26193.54831882  .00001916  00000+0  28025-3 0  9999
2 67766  51.9010  20.9992 0000605 109.5576 250.5451 14.79936256 23666
KUIPER-00178            
1 67767U 26030D   26193.51454697  .00001658  00000+0  24638-3 0  9991
2 67767  51.9013  21.1305 0000769 123.1831 236.9205 14.79937099 23669
KUIPER-00180            
1 67768U 26030E   26193.51993635  .00001864  00000+0  27335-3 0  9998
2 67768  51.8991  16.1111 0000660 107.9329 252.1705 14.79938131 23736
KUIPER-00197            
1 67769U 26030F   26193.40644910  .00001764  00000+0  26025-3 0  9990
2 67769  51.8985 356.6243 0000639 167.9302 192.1676 14.79938136 23994
KUIPER-00198            
1 67770U 26030G   26193.49424914  .00001701  00000+0  25221-3 0  9999
2 67770  51.8991   8.7184 0000670 129.1187 230.9835 14.79919808 23834
KUIPER-00199            
1 67771U 26030H   26193.40589287  .00027377  00000+0  75164-3 0  9994
2 67771  51.8822 338.0084 0010295 142.8265 217.3436 15.36995757 24253
KUIPER-00200            
1 67772U 26030J   26193.44288153  .00001722  00000+0  25526-3 0  9990
2 67772  51.8992 353.9901 0001303  75.1946 284.9161 14.79865135 24033
KUIPER-00203            
1 67773U 26030K   26192.93515242 -.00000074  00000+0  19325-4 0  9997
2 67773  51.9061  28.7538 0000621 117.9602 242.1423 14.79930250 23500
KUIPER-00205            
1 67774U 26030L   26192.70269321  .00001799  00000+0  26466-3 0  9994
2 67774  51.9013 354.7143 0000892 110.8868 249.2190 14.79983108 23967
KUIPER-00208            
1 67775U 26030M   26192.96643930  .00001267  00000+0  21091-3 0  9994
2 67775  51.8992  20.9505 0008235 113.2886 246.8943 14.76515125 23611
KUIPER-00209            
1 67776U 26030N   26193.55370984  .00000532  00000+0  98803-4 0  9997
2 67776  51.9022  16.0528 0000940 128.5426 231.5621 14.79935821 23731
KUIPER-00213            
1 67777U 26030P   26193.52264005 -.00000293  00000+0 -93479-5 0  9992
2 67777  51.8923  13.6685 0001296 110.6641 249.4460 14.79932471 23764
KUIPER-00214            
1 67778U 26030Q   26193.49158711  .00001623  00000+0  24183-3 0  9995
2 67778  51.9004  11.3166 0000616 134.6965 225.4047 14.79935206 23792
